RECIPIENT NAME,Address,City,STATE,Zip Code
ACTIVATE GLOBAL INC,"2600 Tenth Street, Suite 300",Berkeley,CA,94710
"ALGEBRA PROJECT, INC., THE",99 Bishop Allen Dr,Cambridge,MA,2139
ALGOFACE INC,37204 N Transquil Trl,Carefree,AZ,85377
AMERICAN ASSOCIATION FOR THE ADVANCEMENT OF SCIENCE,1200 New York Ave NW,Washington,DC,20005
AMERICAN ASSOCIATION FOR THE ADVANCEMENT OF SCIENCE,1200 New York Ave NW,Washington,DC,20005
AMERICAN ASSOCIATION FOR THE ADVANCEMENT OF SCIENCE,1200 New York Ave NW,Washington,DC,20005
AMERICAN ASSOCIATION OF COLLEGES AND UNIVERSITIES,1818 R St NW,Washington,DC,20009
AMERICAN GEOPHYSICAL UNION,2000 Florida Avenue NW,Washington,DC,20009
AMERICAN GEOPHYSICAL UNION,2000 Florida Avenue NW,Washington,DC,20009
AMERICAN GEOPHYSICAL UNION,2000 Florida Avenue NW,Washington,DC,20009
AMERICAN GEOPHYSICAL UNION,2000 Florida Avenue NW,Washington,DC,20009
AMERICAN INDIAN SCIENCE & ENGINEERING SOCIETY,"6321 Riverside Plaza Ln NW, Suite L1-A",Albuquerque,NM,87120-2642
"AMERICAN INSTITUTE OF BIOLOGICAL SCIENCES, INC.","950 Herndon Parkway, Suite 450",Herndon,VA,20170
AMERICAN INSTITUTE OF CHEMICAL ENGINEERS,3 Park Ave,New York,NY,10016
AMERICAN INSTITUTE OF MATHEMATICS,1200 E California Blvd,Pasadena,CA,91125
AMERICAN INSTITUTE OF PHYSICS INCORPORATED,1 Physics Ellipse,College Park,MD,20740
AMERICAN INSTITUTES FOR RESEARCH IN THE BEHAVIORAL SCIENCES,1400 Crystal Drive,Arlington,VA,22202-3289
AMERICAN INSTITUTES FOR RESEARCH IN THE BEHAVIORAL SCIENCES,1401 Crystal Drive,Arlington,VA,22202-3290
AMERICAN INSTITUTES FOR RESEARCH IN THE BEHAVIORAL SCIENCES,1402 Crystal Drive,Arlington,VA,22202-3291
AMERICAN MATHEMATICAL ASSOCIATION OF TWO,5983 Macon Cv,Memphis,TN,38134
"AMERICAN METEOROLOGICAL SOCIETY, INC.",1200 New York Ave NW,Washington,MA,20005
AMERICAN PHYSICAL SOCIETY,1 Physics Ellipse,College Park,MD,20740
AMERICAN PHYSICAL SOCIETY,1 Physics Ellipse,College Park,MD,20740
AMERICAN POLITICAL SCIENCE ASSOCIATION,1527 New Hampshire Ave NW,Washington,DC,20036
AMERICAN SOCIETY FOR ENGINEERING EDUCATION,1818 N St NW Ste 600,Washington,DC,20036
AMERICAN SOCIETY FOR ENGINEERING EDUCATION,1818 N St NW Ste 600,Washington,DC,20036
AMERICAN SOCIETY FOR ENGINEERING EDUCATION,1818 N St NW Ste 600,Washington,DC,20036
AMERICAN SOCIETY FOR MICROBIOLOGY,1752 N St NW,Washington,DC,20036
"ANYGLABS, INC.",5770 Oberlin Dr,San Diego,CA,92121-1723
ARIZONA TECHNOLOGY COUNCIL FOUNDATION,"2800 North Central Avenue, #1530",Phoenix,AZ,85004
ARKANSAS CHILDREN'S RESEARCH INSTITUTE,13 Childrens Way Ste 842,Little Rock,AR,72202
ASSOCIATED UNIVERSITIES INC,1400 16th St NW Ste 730,Washington,DC,20036
THE ASSOCIATION OF AMERICAN GEOGRAPHERS,1701 Pennsylvania Ave NW,Washington,DC,20006
"ASTRIA BIOSCIENCES, INC.",1123 Pinewood Drive,Pittsburg,PA,15243
"AUGUSTA UNIVERSITY RESEARCH INSTITUTE, INC",1120 15th St,Augusta,GA,30912
"AUGUSTA UNIVERSITY RESEARCH INSTITUTE, INC",1120 15th St,Augusta,GA,30912
BIGELOW LABORATORY FOR OCEAN SCIENCES,60 Bigelow Dr,East Boothbay,ME,4544
BIOINDUSTRIAL MANUFACTURING AND DESIGN ECOSYSTEM,15600 35th Ave N Ste 102,Minneapolis,CA,55447
"BIOSENS8, INC.",750 Main St,Cambridge,MA,02139-3544
BISHOP MUSEUM,1525 Bernice St,Honolulu,HI,96817
BLACK IN MARINE SCIENCE,522 W Riverside Ave,Spokane,WA,99201
CALM WATERS GROUP LLC,5393 Oak Forest Dr,Jacksonville,CA,32211
CARNEGIE INSTITUTION OF WASHINGTON,5241 Broad Branch Rd. NW,Washington,DC,20015
"CARY INSTITUTE OF ECOSYSTEM STUDIES, INC",2801 Sharon Tpke,Millbrook,NY,12545
CAST INC,40 Harvard Mills Square,Wakefield,MA,1880
CHIBITRONICS INC,1652 Mountain Ash Way,New Port Richey,FL,34655
"CHILD TRENDS, INCORPORATED",7315 Wisconsin Ave,Bethesda,MD,20814
"CHILD TRENDS, INCORPORATED",7315 Wisconsin Ave,Bethesda,MD,20814
COASTAL AND ESTUARINE RESEARCH FEDERATION,2150 N 107th St,Seattle,WA,98133
COEUR D'ALENE TRIBE,850 A St,Plummer,ID,83851
COLD SPRING HARBOR LABORATORY,1 Bungtown Rd,Cold Spring Harbor,NY,11724
COLD SPRING HARBOR LABORATORY,1 Bungtown Rd,Cold Spring Harbor,NY,11724
COLLEGE OF SOUTHERN MARYLAND,8730 Mitchell Rd,La Plata,MD,20646
"COMPUTER SCIENCE TEACHERS ASSOCIATION, LLC",200 E Randolph St,Chicago,IL,60601
CONCORD CONSORTIUM INC,25 Love Ln,Concord,MA,1742
CONCORD CONSORTIUM INC,25 Love Ln,Concord,MA,1742
COUNCIL OF GRADUATE SCHOOLS,1 Dunpont Cir NW,Washington,DC,20036
COUNCIL OF GRADUATE SCHOOLS,1 Dunpont Cir NW,Washington,DC,20036
"CULTURALLY RESPONSIVE SOLUTIONS, LLC",1 Oak Knoll Drive,Wallingford,PA,19086
DEEP SOUTH CENTER FOR ENVIRONMENTAL JUSTICE INC,9801 Lake Forest Blvd,New Orleans,LA,70127
DONALD DANFORTH PLANT SCIENCE CENTER,975 N Warson Rd,Saint Louis,MO,63132
EARTH IMAGES FOUNDATION,470 Cavour St,Oakland,CA,94618
EARTHSCOPE CONSORTIUM INC.,1200 New York Ave NW,Washington,DC,20005
EASTIE FARM INC,213 Webster St,Boston,MA,2128
EASTIE FARM INC,213 Webster St,Boston,MA,2128
ECOLOGICAL SOCIETY OF AMERICA INC,1990 M St NW,Washington,DC,20036
ECOLOGICAL SOCIETY OF AMERICA INC,1990 M St NW,Washington,DC,20036
ECOLOGICAL SOCIETY OF AMERICA INC,1990 M St NW,Washington,DC,20036
ECOLOGICAL SOCIETY OF AMERICA INC,1990 M St NW,Washington,DC,20036
"EDUCATION DEVELOPMENT CENTER, INC.",1025 Thomas Jefferson St NW,Waltham,MA,2451
"EDUCATION DEVELOPMENT CENTER, INC.",1025 Thomas Jefferson St NW,Waltham,MA,2451
"EDUCATION DEVELOPMENT CENTER, INC.",1025 Thomas Jefferson St NW,Waltham,MA,2451
"EDUCATION DEVELOPMENT CENTER, INC.",1025 Thomas Jefferson St NW,Waltham,MA,2451
ELECTRICAL & COMPUTER ENGINEERING DEPARTMENT HEADS ASSOCIATION,180 N Stetson Ave,Chicago,IL,60601
"EMPALLO, INC.",511 Putnam Ave,Cambridge,MA,2139
FEDERATION OF AMERICAN SOCIETIES FOR EXPERIMENTAL BIOLOGY,PO Box 2288,Rockville,MD,20847
FEDERATION OF AMERICAN SOCIETIES FOR EXPERIMENTAL BIOLOGY,PO Box 2288,Rockville,MD,20847
FIRELINE SCIENCE LLC,5501 S College Ave,Tempe,AZ,85283
GENASSIST INC,8200 E Belleview Ave,Greenwood Village,MO,80111
GENETICS SOCIETY OF AMERICA INC,6120 Executive Blvd,Rockville,MD,20852
GLOBAL PHILANTHROPY PARTNERSHIP,643 W Arlington Pl,Chicago,IL,60614
GORDON RESEARCH CONFERENCES,512 Liberty Lane,West Kingston,RI,2892
GORDON RESEARCH CONFERENCES,512 Liberty Lane,West Kingston,RI,2892
GORDON RESEARCH CONFERENCES,512 Liberty Lane,West Kingston,RI,2892
GORDON RESEARCH CONFERENCES,512 Liberty Lane,West Kingston,RI,2892
GORDON RESEARCH CONFERENCES,512 Liberty Lane,West Kingston,RI,2892
GORDON RESEARCH CONFERENCES,512 Liberty Lane,West Kingston,RI,2892
GORDON RESEARCH CONFERENCES,512 Liberty Lane,West Kingston,RI,2892
GORDON RESEARCH CONFERENCES,512 Liberty Lane,West Kingston,RI,2892
GORDON RESEARCH CONFERENCES,512 Liberty Lane,West Kingston,RI,2892
GORDON RESEARCH CONFERENCES,512 Liberty Lane,West Kingston,RI,2892
GORDON RESEARCH CONFERENCES,512 Liberty Lane,West Kingston,RI,2892
GORDON RESEARCH CONFERENCES,512 Liberty Lane,West Kingston,RI,2892
GORDON RESEARCH CONFERENCES,512 Liberty Lane,West Kingston,RI,2892
GORDON RESEARCH CONFERENCES,512 Liberty Lane,West Kingston,RI,2892
GORDON RESEARCH CONFERENCES,512 Liberty Lane,West Kingston,RI,2892
GORDON RESEARCH CONFERENCES,512 Liberty Lane,West Kingston,RI,2892
GORDON RESEARCH CONFERENCES,512 Liberty Lane,West Kingston,RI,2892
GORDON RESEARCH CONFERENCES,512 Liberty Lane,West Kingston,RI,2892
GORDON RESEARCH CONFERENCES,512 Liberty Lane,West Kingston,RI,2892
GORDON RESEARCH CONFERENCES,512 Liberty Lane,West Kingston,RI,2892
GORDON RESEARCH CONFERENCES,512 Liberty Lane,West Kingston,RI,2892
GORDON RESEARCH CONFERENCES,512 Liberty Lane,West Kingston,RI,2892
GORDON RESEARCH CONFERENCES,512 Liberty Lane,West Kingston,RI,2892
GORDON RESEARCH CONFERENCES,512 Liberty Lane,West Kingston,RI,2892
GORDON RESEARCH CONFERENCES,512 Liberty Lane,West Kingston,RI,2892
GORDON RESEARCH CONFERENCES,512 Liberty Lane,West Kingston,RI,2892
"GREATER WASHINGTON EDUCATIONAL TELECOMMUNICATIONS ASSOCIATION, INC.",3939 Campbell Ave,Arlington,VA,22206
HAIRDAYS INC,11 E Loop Road,New York,NY,10044-1500
HISPANIC ASSOCIATION OF COLLEGES & UNIVERSITIES,4801 NW Loop 410,San Antonio,TX,78229
The HISTORY OF SCIENCE SOCIETY,315 Chestnut Street,Philadelphia,IN,46556
ICONIUM ENGINEERING COMPANY,2029 Becker Dr,Lawrence,KS,66047
INCLUSIVE ENGINEERING CONSORTIUM INC,205 Daingerfield Road,Alexandria,IL,22314
INITIUM AI INC,245 Hunters Trl,Ann Arbor,MI,48103
INSTITUTE FOR FUTURE INTELLIGENCE INC,26 Rockland St,Natick,MA,1760
INSTITUTE FOR LEARNING INNOVATION,9450 SW Gemini Dr,Beaverton,OR,97008
KNOLOGY LTD,40 Exchange Pl,New York,NY,10005
KNOLOGY LTD,40 Exchange Pl,New York,NY,10005
LEARNING PARTNERSHIP LLC,4617 Wolf Rd,Western Springs,IL,60558
LINGUISTIC SOCIETY OF AMERICA,522 21st St NW,Washington,DC,20006
LINGUISTIC SOCIETY OF AMERICA,522 21st St NW,Washington,DC,20006
LIVEDX INC.,333 SE 2nd Ave,Miami,CO,33131
LOS ANGELES COUNTY MUSEUM OF NATURAL HISTORY FOUNDATION,900 Exposition Blvd,Los Angeles,CA,90007
LOUISIANA UNIVERSITIES MARINE CONSORTIUM,8124 Highway 56,Chauvin,LA,70344
MARINE ENVIRONMENTAL SCIENCES CONSORTIUM,101 Bienville Blvd,Dauphin Island,AL,36528
MATERIALS RESEARCH SOCIETY,506 Keystone Drive,Warrendale,PA,15086-7537
MATERIALS RESEARCH SOCIETY,506 Keystone Drive,Warrendale,PA,15086-7537
MATERIALS RESEARCH SOCIETY,506 Keystone Drive,Warrendale,PA,15086-7537
MATERIALS RESEARCH SOCIETY,506 Keystone Drive,Warrendale,PA,15086-7537
MATERIALS RESEARCH SOCIETY,506 Keystone Drive,Warrendale,PA,15086-7537
MATHEMATICAL SCIENCES RESEARCH INSTITUTE,17 Gauss Way,Berkeley,CA,94720
MINERALS METALS & MATERIALS SOCIETY INC,5700 Corporate Dr,Pittsburgh,PA,15237
"MINTANGIBLE, INC.",2400 Old Brick Road,Glen Allen,VA,23060
MONTEREY BAY AQUARIUM RESEARCH INSTITUTE,7700 Sandholdt Rd,Moss Landing,CA,95039
"MOTE MARINE LABORATORY, INC.",1600 Ken Thompson Parkway,Sarasota,FL,34236
"MOTE MARINE LABORATORY, INC.",1600 Ken Thompson Parkway,Sarasota,FL,34236
NATIONAL ACADEMY OF SCIENCES,2101 Constitution Ave NW,Washington,DC,20418
NATIONAL ACADEMY OF SCIENCES,2101 Constitution Ave NW,Washington,DC,20418
NATIONAL ACADEMY OF SCIENCES,2101 Constitution Ave NW,Washington,DC,20418
NATIONAL ACADEMY OF SCIENCES,2101 Constitution Ave NW,Washington,DC,20418
NATIONAL ACADEMY OF SCIENCES,2101 Constitution Ave NW,Washington,DC,20418
NATIONAL ACADEMY OF SCIENCES,2101 Constitution Ave NW,Washington,DC,20418
NATIONAL ACADEMY OF SCIENCES,2101 Constitution Ave NW,Washington,DC,20418
NATIONAL ACADEMY OF SCIENCES,2101 Constitution Ave NW,Washington,DC,20418
NATIONAL ACADEMY OF SCIENCES,2101 Constitution Ave NW,Washington,DC,20418
NATIONAL BUREAU OF ECONOMIC RESEARCH INC,1050 Massachusetts Ave,Cambridge,MA,2138
NATIONAL BUREAU OF ECONOMIC RESEARCH INC,1050 Massachusetts Ave,Cambridge,MA,2138
NATIONAL BUREAU OF ECONOMIC RESEARCH INC,1050 Massachusetts Ave,Cambridge,MA,2138
NATIONAL BUREAU OF ECONOMIC RESEARCH INC,1050 Massachusetts Ave,Cambridge,MA,2138
NATIONAL BUREAU OF ECONOMIC RESEARCH INC,1050 Massachusetts Ave,Cambridge,MA,2138
NATIONAL BUREAU OF ECONOMIC RESEARCH INC,1050 Massachusetts Ave,Cambridge,MA,2138
NATIONAL BUREAU OF ECONOMIC RESEARCH INC,1050 Massachusetts Ave,Cambridge,MA,2138
NATIONAL BUREAU OF ECONOMIC RESEARCH INC,1050 Massachusetts Ave,Cambridge,MA,2138
NATIONAL BUREAU OF ECONOMIC RESEARCH INC,1050 Massachusetts Ave,Cambridge,MA,2138
NATIONAL BUREAU OF ECONOMIC RESEARCH INC,1050 Massachusetts Ave,Cambridge,MA,2138
NATIONAL BUREAU OF ECONOMIC RESEARCH INC,1050 Massachusetts Ave,Cambridge,MA,2138
NATIONAL BUREAU OF ECONOMIC RESEARCH INC,1050 Massachusetts Ave,Cambridge,MA,2138
"NATIONAL COLLEGIATE INVENTORS & INNOVATORS ALLIANCE, INC.",100 Venture Way,Hadley,MA,1035
NATIONAL CONSORTIUM FOR GRADUATE DEGREES FOR MINORITIES IN ENGINEERING AND SCIENCE INC.,1430 Duke St,Alexandria,VA,22314
NATIONAL OPINION RESEARCH CENTER,55 E Monroe St,Chicago,IL,60603
NATIONAL OPINION RESEARCH CENTER,55 E Monroe St,Chicago,IL,60603
NATIONAL SOCIETY OF BLACK ENGINEERS,205 Daingerfield Rd,Alexandria,VA,22314
NATRX INC,6220 Angus Dr,Umstead,NC,27617
NERRATIVE TECHNOLOGY INC,426 Spring Oak Rd,Camarillo,CA,93010
NEW YORK HALL OF SCIENCE,47-01 111th St,Corona,NY,11368
NEW YORK HALL OF SCIENCE,47-01 111th St,Corona,NY,11368
OREGON MUSEUM OF SCIENCE AND INDUSTRY,1945 SE Water Ave,Portland,OR,97214
OREGON MUSEUM OF SCIENCE AND INDUSTRY,1945 SE Water Ave,Portland,OR,97214
OREGON RESEARCH INSTITUTE,3800 Sports Way,Springfield,OR,97477-2019
PHYTUNES INC,616 Ramona St,Palo Alto,CA,94301
"PRAIRIELEARN, INC.",60 Hazelwood Drive,Champaign,IL,61820
PRENOSTIK LLC,21 Meadow Gln,Irvine,CA,92602
PUBLIC POLICY LAB,20 Jay St,Brooklyn,NY,11201
QUALITY EDUCATION FOR MINORITIES NETWORK (INC),1818 N St NW,Washington,DC,20036-2404
QUALITY EDUCATION FOR MINORITIES NETWORK (INC),1818 N St NW,Washington,DC,20036-2404
QUALITY EDUCATION FOR MINORITIES NETWORK (INC),1818 N St NW,Washington,DC,20036-2404
"QUANTWORKS, INC.",202 S Greensboro St,Carrboro,NC,27510
RESEARCH FOUNDATION OF THE CITY UNIVERSITY OF NEW YORK,230 W 41st St,New York,NY,10036
RESEARCH FOUNDATION OF THE CITY UNIVERSITY OF NEW YORK,230 W 41st St,New York,NY,10036
RESEARCH FOUNDATION OF THE CITY UNIVERSITY OF NEW YORK,230 W 41st St,New York,NY,10036
RESEARCH FOUNDATION OF THE CITY UNIVERSITY OF NEW YORK,230 W 41st St,New York,NY,10036
RESEARCH FOUNDATION OF THE CITY UNIVERSITY OF NEW YORK,230 W 41st St,New York,NY,10036
RESEARCH FOUNDATION OF THE CITY UNIVERSITY OF NEW YORK,230 W 41st St,New York,NY,10036
RESEARCH FOUNDATION OF THE CITY UNIVERSITY OF NEW YORK,230 W 41st St,New York,NY,10036
RESEARCH FOUNDATION OF THE CITY UNIVERSITY OF NEW YORK,230 W 41st St,New York,NY,10036
RESEARCH FOUNDATION OF THE CITY UNIVERSITY OF NEW YORK,230 W 41st St,New York,NY,10036
RESEARCH FOUNDATION OF THE CITY UNIVERSITY OF NEW YORK,230 W 41st St,New York,NY,10036
RESEARCH FOUNDATION OF THE CITY UNIVERSITY OF NEW YORK,230 W 41st St,New York,NY,10036
RESEARCH FOUNDATION OF THE CITY UNIVERSITY OF NEW YORK,230 W 41st St,New York,NY,10036
RESEARCH FOUNDATION OF THE CITY UNIVERSITY OF NEW YORK,230 W 41st St,New York,NY,10036
RESEARCH FOUNDATION OF THE CITY UNIVERSITY OF NEW YORK,230 W 41st St,New York,NY,10036
RESEARCH FOUNDATION OF THE CITY UNIVERSITY OF NEW YORK,230 W 41st St,New York,NY,10036
RESEARCH FOUNDATION OF THE CITY UNIVERSITY OF NEW YORK,230 W 41st St,New York,NY,10036
RESEARCH FOUNDATION OF THE CITY UNIVERSITY OF NEW YORK,230 W 41st St,New York,NY,10036
RESEARCH FOUNDATION OF THE CITY UNIVERSITY OF NEW YORK,230 W 41st St,New York,NY,10036
RESEARCH FOUNDATION OF THE CITY UNIVERSITY OF NEW YORK,230 W 41st St,New York,NY,10036
RESEARCH FOUNDATION OF THE CITY UNIVERSITY OF NEW YORK,230 W 41st St,New York,NY,10036
RESEARCH FOUNDATION OF THE CITY UNIVERSITY OF NEW YORK,230 W 41st St,New York,NY,10036
RESEARCH FOUNDATION OF THE CITY UNIVERSITY OF NEW YORK,230 W 41st St,New York,NY,10036
RESEARCH FOUNDATION OF THE CITY UNIVERSITY OF NEW YORK,230 W 41st St,New York,NY,10036
RESEARCH FOUNDATION OF THE CITY UNIVERSITY OF NEW YORK,230 W 41st St,New York,NY,10036
RESEARCH FOUNDATION OF THE CITY UNIVERSITY OF NEW YORK,230 W 41st St,New York,NY,10036
RESEARCH FOUNDATION OF THE CITY UNIVERSITY OF NEW YORK,230 W 41st St,New York,NY,10036
RESEARCH FOUNDATION OF THE CITY UNIVERSITY OF NEW YORK,230 W 41st St,New York,NY,10036
RESTORE AMERICA'S ESTUARIES,5314 17th Ave NW,Seattle,VA,98107
ROCKY MOUNTAIN INNOVATION INITIATIVE INC,320 E Vine Dr,Fort Collins,CO,80524
SAGEFOX CONSULTING GROUP LLC,30 Boltwood Walk,Amherst,MA,1002
SAGEFOX CONSULTING GROUP LLC,30 Boltwood Walk,Amherst,MA,1002
SAGEFOX CONSULTING GROUP LLC,30 Boltwood Walk,Amherst,MA,1002
SANTA FE INSTITUTE OF SCIENCE,1399 Hyde Park Rd,Santa Fe,NM,87501
SEEDAI INC,507 L St Nw,Washington,DC,20001-4087
SHAMRCK SOCIAL IMPACT CORP,925 Laney Walker Blvd,Augusta,GA,30901-2951
SMITHSONIAN INSTITUTION,600 Maryland Ave SW,Washington,DC,20024
SOCIETY FOR PERSONALITY & SOCIAL PSYCHOLOGY INC,2021 L St NW,Washington,DC,20036-3914
SOCIETY OF WOMEN ENGINEERS,130 E Randolph St,Chicago,IL,60601
STATE CENTER COMMUNITY COLLEGE DISTRICT,1171 Fulton St,Fresno,CA,93721
SUSTAINABLE MANUFACTURING INNOVATION ALLIANCE CORP,150 Lucius Gordon Dr.,West Henrietta,NY,14586
"TERC, INC.",2067 Massachussetts Ave,Cambridge,MA,2140
"TERC, INC.",2067 Massachussetts Ave,Cambridge,MA,2140
"TERC, INC.",2067 Massachussetts Ave,Cambridge,MA,2140
"TERC, INC.",2067 Massachussetts Ave,Cambridge,MA,2140
"TERC, INC.",2067 Massachussetts Ave,Cambridge,MA,2140
"TERC, INC.",2067 Massachussetts Ave,Cambridge,MA,2140
THE AEROSPACE CORPORATION,2310 E El Segundo Blvd,El Segundo,CA,90245-4609
THE AMERICAN MUSEUM OF NATURAL HISTORY,Central Park West & 79th St,New York,NY,10024
THE AMERICAN MUSEUM OF NATURAL HISTORY,Central Park West & 79th St,New York,NY,10024
THE AMERICAN MUSEUM OF NATURAL HISTORY,Central Park West & 79th St,New York,NY,10024
THE EXPLORATORIUM,Pier 15,San Francisco,CA,94111
"THE GEOLOGICAL SOCIETY OF AMERICA, INC.",3300 Penrose Place,Boulder,CO,80301
"THE GEOLOGICAL SOCIETY OF AMERICA, INC.",3300 Penrose Place,Boulder,CO,80301
"THE GLOBAL FUND FOR WOMEN, INC.",800 Market St,San Francisco,CA,94102
"THE LEARNING NETWORK, LLC",1915 Natchez Trce,Allen,TX,75013
THE MARINE BIOLOGICAL LABORATORY,100 Water St,Woods Hole,MA,2543
THE MATHEMATICAL ASSOCIATION OF AMERICA,11 Dunpont Circle NW,Washington,DC,20036
THE MATHEMATICAL ASSOCIATION OF AMERICA,11 Dunpont Circle NW,Washington,DC,20036
THE MITRE CORPORATION,7515 Colshire Dr,McLean,VA,22102
"THE MORGRIDGE INSTITUTE FOR RESEARCH, INC.",330 N Orchard St,Madison,WI,53715
THE MORTON ARBORETUM,4100 Illinois Rte 53,Lisle,IL,60532
THE OCEANOGRAPHY SOCIETY,104 Lynch St,Rockville,MD,20850
THE RAND CORPORATION,1776 Main St,Santa Monica,CA,90401
THE URBAN INSTITUTE,500 Lenfant Plz SW,Washington,DC,20024
UNITED TRIBES TECHNICAL COLLEGE,3315 University Dr,Bismarck,ND,58504
UNIVERSITY CORPORATION FOR ATMOSPHERIC RESEARCH,3080 Center Green Dr,Boulder,CO,80301
UNIVERSITY CORPORATION FOR ATMOSPHERIC RESEARCH,3080 Center Green Dr,Boulder,CO,80301
UNIVERSITY CORPORATION FOR ATMOSPHERIC RESEARCH,3080 Center Green Dr,Boulder,CO,80301
UNIVERSITY CORPORATION FOR ATMOSPHERIC RESEARCH,3080 Center Green Dr,Boulder,CO,80301
UNIVERSITY CORPORATION FOR ATMOSPHERIC RESEARCH,3080 Center Green Dr,Boulder,CO,80301
UNIVERSITY CORPORATION FOR ATMOSPHERIC RESEARCH,3080 Center Green Dr,Boulder,CO,80301
"US IGNITE, INC.",1150 18th St NW,Washington,DC,20036
USENIX ASSOCIATION,2560 9th St,Berkeley,WA,94710
VANDERBILT UNIVERSITY MEDICAL CENTER,1211 Medical Center Drive,Nashville,TN,37232
"VECTECH, INC.",3600 Clipper Mill Rd,Baltimore,MD,21211
VIRGINIA BIOTECHNOLOGY RESEARCH PARK,800 E Leigh St,Richmond,VA,23219-1534
VIRTUAL APPRENTICE LLC,1 Research Ct Ste 450,Rockville,MD,20850
WEST VIRGINIA UNIVERSITY RESEARCH CORPORATION,886 Chestnut Ridge Road,Morgantown,WV,26506
WEST VIRGINIA UNIVERSITY RESEARCH CORPORATION,886 Chestnut Ridge Road,Morgantown,WV,26506
WEST VIRGINIA UNIVERSITY RESEARCH CORPORATION,886 Chestnut Ridge Road,Morgantown,WV,26506
WEST VIRGINIA UNIVERSITY RESEARCH CORPORATION,886 Chestnut Ridge Road,Morgantown,WV,26506
WEST VIRGINIA UNIVERSITY RESEARCH CORPORATION,886 Chestnut Ridge Road,Morgantown,WV,26506
WEST VIRGINIA UNIVERSITY RESEARCH CORPORATION,886 Chestnut Ridge Road,Morgantown,WV,26506
WEST VIRGINIA UNIVERSITY RESEARCH CORPORATION,886 Chestnut Ridge Road,Morgantown,WV,26506
WEST VIRGINIA UNIVERSITY RESEARCH CORPORATION,886 Chestnut Ridge Road,Morgantown,WV,26506
WEST VIRGINIA UNIVERSITY RESEARCH CORPORATION,886 Chestnut Ridge Road,Morgantown,WV,26506
WEST VIRGINIA UNIVERSITY RESEARCH CORPORATION,886 Chestnut Ridge Road,Morgantown,WV,26506
WESTED,730 Harrison St,San Francisco,CA,94107
WESTED,730 Harrison St,San Francisco,CA,94107
WOMEN IN ENGINEERING PROGRAMS & ADVOCATES NETWORK,2001 L St. NW,Washington,DC,20036
WOODWELL CLIMATE RESEARCH CENTER INC,149 Woods Hole Rd,Falmouth,MA,2540
"ZENOBIA THERAPEUTICS, INC",3550 General Atomics Ct,San Diego,CA,92121
ZIKER ENTERPRISES LLC,2769 Sunbonnet Ct,San Jose,CA,95125
